STARLINK-31686          
1 59579U 24076R   26068.21482325  .00001789  00000+0  74477-4 0  9990
2 59579  43.0054  11.3685 0001207 273.6352  86.4362 15.27598261106434
2025-313BD              
1 67299U 25313BD  26068.62968741  .00081010  00000+0  27634-2 0  9995
2 67299  97.3970 145.2850 0007287 333.4514  26.6352 15.30002360 10838
